[{"OBJECT_NAME":"ONEWEB-0012","OBJECT_ID":"2019-010A","EPOCH":"2026-06-09T04:44:24.050976","MEAN_MOTION":13.16594637,"ECCENTRICITY":0.0002119,"INCLINATION":87.9103,"RA_OF_ASC_NODE":230.3716,"ARG_OF_PERICENTER":86.9583,"MEAN_ANOMALY":273.179,"EPHEMERIS_TYPE":0,"CLASSIFICATION_TYPE":"U","NORAD_CAT_ID":44057,"ELEMENT_SET_NO":999,"REV_AT_EPOCH":35051,"BSTAR":0.00011664,"MEAN_MOTION_DOT":5.7e-07,"MEAN_MOTION_DDOT":0.0},{"OBJECT_NAME":"ONEWEB-0010","OBJECT_ID":"2019-010B","EPOCH":"2026-06-09T05:20:52.531872","MEAN_MOTION":13.16594087,"ECCENTRICITY":0.0001794,"INCLINATION":87.9102,"RA_OF_ASC_NODE":230.3626,"ARG_OF_PERICENTER":104.9861,"MEAN_ANOMALY":255.1468,"EPHEMERIS_TYPE":0,"CLASSIFICATION_TYPE":"U","NORAD_CAT_ID":44058,"ELEMENT_SET_NO":999,"REV_AT_EPOCH":35056,"BSTAR":-0.00015586,"MEAN_MOTION_DOT":-4.7e-07,"MEAN_MOTION_DDOT":0.0},{"OBJECT_NAME":"ONEWEB-0008","OBJECT_ID":"2019-010C","EPOCH":"2026-06-09T05:57:21.518208","MEAN_MOTION":13.16595282,"ECCENTRICITY":0.0002294,"INCLINATION":87.9099,"RA_OF_ASC_NODE":230.353,"ARG_OF_PERICENTER":101.2511,"MEAN_ANOMALY":258.8878,"EPHEMERIS_TYPE":0,"CLASSIFICATION_TYPE":"U","NORAD_CAT_ID":44059,"ELEMENT_SET_NO":999,"REV_AT_EPOCH":35068,"BSTAR":0.00013554,"MEAN_MOTION_DOT":6.5e-07,"MEAN_MOTION_DDOT":0.0},{"OBJECT_NAME":"ONEWEB-0007","OBJECT_ID":"2019-010D","EPOCH":"2026-06-09T06:38:50.112096","MEAN_MOTION":13.15548078,"ECCENTRICITY":0.0001671,"INCLINATION":87.9001,"RA_OF_ASC_NODE":260.797,"ARG_OF_PERICENTER":95.5495,"MEAN_ANOMALY":264.5826,"EPHEMERIS_TYPE":0,"CLASSIFICATION_TYPE":"U","NORAD_CAT_ID":44060,"ELEMENT_SET_NO":999,"REV_AT_EPOCH":35033,"BSTAR":0.0003967,"MEAN_MOTION_DOT":1.62e-06,"MEAN_MOTION_DDOT":0.0},{"OBJECT_NAME":"ONEWEB-0006","OBJECT_ID":"2019-010E","EPOCH":"2026-06-09T06:44:31.467264","MEAN_MOTION":13.15548574,"ECCENTRICITY":0.0001795,"INCLINATION":87.9012,"RA_OF_ASC_NODE":260.7596,"ARG_OF_PERICENTER":102.2448,"MEAN_ANOMALY":257.8883,"EPHEMERIS_TYPE":0,"CLASSIFICATION_TYPE":"U","NORAD_CAT_ID":44061,"ELEMENT_SET_NO":999,"REV_AT_EPOCH":35038,"BSTAR":0.00036862,"MEAN_MOTION_DOT":1.52e-06,"MEAN_MOTION_DDOT":0.0},{"OBJECT_NAME":"ONEWEB-0011","OBJECT_ID":"2019-010F","EPOCH":"2026-06-09T05:58:53.198112","MEAN_MOTION":13.15550546,"ECCENTRICITY":0.0001984,"INCLINATION":87.9013,"RA_OF_ASC_NODE":260.7756,"ARG_OF_PERICENTER":107.1209,"MEAN_ANOMALY":253.0139,"EPHEMERIS_TYPE":0,"CLASSIFICATION_TYPE":"U","NORAD_CAT_ID":44062,"ELEMENT_SET_NO":999,"REV_AT_EPOCH":35037,"BSTAR":3.473e-05,"MEAN_MOTION_DOT":2.6e-07,"MEAN_MOTION_DDOT":0.0},{"OBJECT_NAME":"ONEWEB-0013","OBJECT_ID":"2020-008A","EPOCH":"2026-06-09T05:21:36.340992","MEAN_MOTION":13.09460216,"ECCENTRICITY":0.0002566,"INCLINATION":87.8531,"RA_OF_ASC_NODE":54.4317,"ARG_OF_PERICENTER":60.0804,"MEAN_ANOMALY":300.0578,"EPHEMERIS_TYPE":0,"CLASSIFICATION_TYPE":"U","NORAD_CAT_ID":45131,"ELEMENT_SET_NO":999,"REV_AT_EPOCH":30502,"BSTAR":0.0016008,"MEAN_MOTION_DOT":5.64e-06,"MEAN_MOTION_DDOT":0.0},{"OBJECT_NAME":"ONEWEB-0017","OBJECT_ID":"2020-008B","EPOCH":"2026-06-09T05:04:11.701920","MEAN_MOTION":13.10369508,"ECCENTRICITY":0.0001607,"INCLINATION":87.8838,"RA_OF_ASC_NODE":37.8575,"ARG_OF_PERICENTER":85.5139,"MEAN_ANOMALY":274.6172,"EPHEMERIS_TYPE":0,"CLASSIFICATION_TYPE":"U","NORAD_CAT_ID":45132,"ELEMENT_SET_NO":999,"REV_AT_EPOCH":30690,"BSTAR":-0.0004627,"MEAN_MOTION_DOT":-1.49e-06,"MEAN_MOTION_DDOT":0.0},{"OBJECT_NAME":"ONEWEB-0020","OBJECT_ID":"2020-008C","EPOCH":"2026-06-09T04:21:11.890368","MEAN_MOTION":13.10373931,"ECCENTRICITY":0.0001793,"INCLINATION":87.8846,"RA_OF_ASC_NODE":37.8617,"ARG_OF_PERICENTER":80.5562,"MEAN_ANOMALY":279.5768,"EPHEMERIS_TYPE":0,"CLASSIFICATION_TYPE":"U","NORAD_CAT_ID":45133,"ELEMENT_SET_NO":999,"REV_AT_EPOCH":30729,"BSTAR":0.0016091,"MEAN_MOTION_DOT":5.74e-06,"MEAN_MOTION_DDOT":0.0},{"OBJECT_NAME":"ONEWEB-0021","OBJECT_ID":"2020-008D","EPOCH":"2026-06-09T04:42:42.236352","MEAN_MOTION":13.10370989,"ECCENTRICITY":0.0001775,"INCLINATION":87.8837,"RA_OF_ASC_NODE":37.8747,"ARG_OF_PERICENTER":78.4209,"MEAN_ANOMALY":281.7118,"EPHEMERIS_TYPE":0,"CLASSIFICATION_TYPE":"U","NORAD_CAT_ID":45134,"ELEMENT_SET_NO":999,"REV_AT_EPOCH":30760,"BSTAR":0.0014942,"MEAN_MOTION_DOT":5.34e-06,"MEAN_MOTION_DDOT":0.0},{"OBJECT_NAME":"ONEWEB-0023","OBJECT_ID":"2020-008F","EPOCH":"2026-06-09T01:18:19.181952","MEAN_MOTION":13.10369115,"ECCENTRICITY":0.0001944,"INCLINATION":87.8842,"RA_OF_ASC_NODE":37.8846,"ARG_OF_PERICENTER":80.2147,"MEAN_ANOMALY":279.92,"EPHEMERIS_TYPE":0,"CLASSIFICATION_TYPE":"U","NORAD_CAT_ID":45136,"ELEMENT_SET_NO":999,"REV_AT_EPOCH":30701,"BSTAR":-0.00018656,"MEAN_MOTION_DOT":-5.2e-07,"MEAN_MOTION_DDOT":0.0},{"OBJECT_NAME":"ONEWEB-0024","OBJECT_ID":"2020-008G","EPOCH":"2026-06-09T04:19:00.158016","MEAN_MOTION":13.10373766,"ECCENTRICITY":0.0001773,"INCLINATION":87.8853,"RA_OF_ASC_NODE":37.8521,"ARG_OF_PERICENTER":81.1377,"MEAN_ANOMALY":278.9951,"EPHEMERIS_TYPE":0,"CLASSIFICATION_TYPE":"U","NORAD_CAT_ID":45137,"ELEMENT_SET_NO":999,"REV_AT_EPOCH":30719,"BSTAR":0.001535,"MEAN_MOTION_DOT":5.49e-06,"MEAN_MOTION_DDOT":0.0},{"OBJECT_NAME":"ONEWEB-0025","OBJECT_ID":"2020-008H","EPOCH":"2026-06-09T04:18:36.297792","MEAN_MOTION":13.10374229,"ECCENTRICITY":0.0002128,"INCLINATION":87.8855,"RA_OF_ASC_NODE":37.8416,"ARG_OF_PERICENTER":93.4865,"MEAN_ANOMALY":266.6506,"EPHEMERIS_TYPE":0,"CLASSIFICATION_TYPE":"U","NORAD_CAT_ID":45138,"ELEMENT_SET_NO":999,"REV_AT_EPOCH":30752,"BSTAR":0.001614,"MEAN_MOTION_DOT":5.76e-06,"MEAN_MOTION_DDOT":0.0},{"OBJECT_NAME":"ONEWEB-0026","OBJECT_ID":"2020-008J","EPOCH":"2026-06-09T01:42:23.441760","MEAN_MOTION":13.11417586,"ECCENTRICITY":0.0001722,"INCLINATION":87.8893,"RA_OF_ASC_NODE":22.6839,"ARG_OF_PERICENTER":88.7423,"MEAN_ANOMALY":271.3902,"EPHEMERIS_TYPE":0,"CLASSIFICATION_TYPE":"U","NORAD_CAT_ID":45139,"ELEMENT_SET_NO":999,"REV_AT_EPOCH":31004,"BSTAR":0.0015182000000000001,"MEAN_MOTION_DOT":5.51e-06,"MEAN_MOTION_DDOT":0.0},{"OBJECT_NAME":"ONEWEB-0028","OBJECT_ID":"2020-008K","EPOCH":"2026-06-09T02:56:42.437760","MEAN_MOTION":13.11202935,"ECCENTRICITY":0.0001883,"INCLINATION":87.8902,"RA_OF_ASC_NODE":22.6824,"ARG_OF_PERICENTER":70.9678,"MEAN_ANOMALY":289.1654,"EPHEMERIS_TYPE":0,"CLASSIFICATION_TYPE":"U","NORAD_CAT_ID":45140,"ELEMENT_SET_NO":999,"REV_AT_EPOCH":30756,"BSTAR":0.098917,"MEAN_MOTION_DOT":0.00035094,"MEAN_MOTION_DDOT":0.0},{"OBJECT_NAME":"ONEWEB-0032","OBJECT_ID":"2020-008L","EPOCH":"2026-06-09T05:06:47.017152","MEAN_MOTION":13.10369626,"ECCENTRICITY":0.0002159,"INCLINATION":87.8838,"RA_OF_ASC_NODE":37.8587,"ARG_OF_PERICENTER":72.3357,"MEAN_ANOMALY":287.8007,"EPHEMERIS_TYPE":0,"CLASSIFICATION_TYPE":"U","NORAD_CAT_ID":45141,"ELEMENT_SET_NO":999,"REV_AT_EPOCH":30725,"BSTAR":-0.0009256100000000001,"MEAN_MOTION_DOT":-3.1e-06,"MEAN_MOTION_DDOT":0.0},{"OBJECT_NAME":"ONEWEB-0033","OBJECT_ID":"2020-008M","EPOCH":"2026-06-09T04:30:45.378144","MEAN_MOTION":13.10371938,"ECCENTRICITY":0.0001429,"INCLINATION":87.8839,"RA_OF_ASC_NODE":37.8709,"ARG_OF_PERICENTER":94.5156,"MEAN_ANOMALY":265.6135,"EPHEMERIS_TYPE":0,"CLASSIFICATION_TYPE":"U","NORAD_CAT_ID":45142,"ELEMENT_SET_NO":999,"REV_AT_EPOCH":30716,"BSTAR":0.0019607,"MEAN_MOTION_DOT":6.97e-06,"MEAN_MOTION_DDOT":0.0}]