ONEWEB-0012             
1 44057U 19010A   26160.19750059  .00000057  00000+0  11664-3 0  9994
2 44057  87.9103 230.3716 0002119  86.9583 273.1790 13.16594637350512
ONEWEB-0010             
1 44058U 19010B   26160.22283023 -.00000047  00000+0 -15586-3 0  9999
2 44058  87.9102 230.3626 0001794 104.9861 255.1468 13.16594087350566
ONEWEB-0008             
1 44059U 19010C   26160.24816572  .00000065  00000+0  13554-3 0  9994
2 44059  87.9099 230.3530 0002294 101.2511 258.8878 13.16595282350680
ONEWEB-0007             
1 44060U 19010D   26160.27696889  .00000162  00000+0  39670-3 0  9991
2 44060  87.9001 260.7970 0001671  95.5495 264.5826 13.15548078350333
ONEWEB-0006             
1 44061U 19010E   26160.28091976  .00000152  00000+0  36862-3 0  9998
2 44061  87.9012 260.7596 0001795 102.2448 257.8883 13.15548574350385
ONEWEB-0011             
1 44062U 19010F   26160.24922683  .00000026  00000+0  34730-4 0  9996
2 44062  87.9013 260.7756 0001984 107.1209 253.0139 13.15550546350377
ONEWEB-0013             
1 45131U 20008A   26160.22333728  .00000564  00000+0  16008-2 0  9990
2 45131  87.8531  54.4317 0002566  60.0804 300.0578 13.09460216305024
ONEWEB-0017             
1 45132U 20008B   26160.21124655 -.00000149  00000+0 -46270-3 0  9993
2 45132  87.8838  37.8575 0001607  85.5139 274.6172 13.10369508306902
ONEWEB-0020             
1 45133U 20008C   26160.18138762  .00000574  00000+0  16091-2 0  9991
2 45133  87.8846  37.8617 0001793  80.5562 279.5768 13.10373931307293
ONEWEB-0021             
1 45134U 20008D   26160.19632218  .00000534  00000+0  14942-2 0  9997
2 45134  87.8837  37.8747 0001775  78.4209 281.7118 13.10370989307601
ONEWEB-0023             
1 45136U 20008F   26160.05438868 -.00000052  00000+0 -18656-3 0  9993
2 45136  87.8842  37.8846 0001944  80.2147 279.9200 13.10369115307014
ONEWEB-0024             
1 45137U 20008G   26160.17986294  .00000549  00000+0  15350-2 0  9994
2 45137  87.8853  37.8521 0001773  81.1377 278.9951 13.10373766307190
ONEWEB-0025             
1 45138U 20008H   26160.17958678  .00000576  00000+0  16140-2 0  9998
2 45138  87.8855  37.8416 0002128  93.4865 266.6506 13.10374229307521
ONEWEB-0026             
1 45139U 20008J   26160.07110465  .00000551  00000+0  15182-2 0  9990
2 45139  87.8893  22.6839 0001722  88.7423 271.3902 13.11417586310040
ONEWEB-0028             
1 45140U 20008K   26160.12271340  .00035094  00000+0  98917-1 0  9994
2 45140  87.8902  22.6824 0001883  70.9678 289.1654 13.11202935307564
ONEWEB-0032             
1 45141U 20008L   26160.21304418 -.00000310  00000+0 -92561-3 0  9994
2 45141  87.8838  37.8587 0002159  72.3357 287.8007 13.10369626307257
ONEWEB-0033             
1 45142U 20008M   26160.18802521  .00000697  00000+0  19607-2 0  9994
2 45142  87.8839  37.8709 0001429  94.5156 265.6135 13.10371938307162
